NORAD_CAT_ID,OBJECT_NAME,OBJECT_TYPE,EPOCH,MEAN_MOTION,ECCENTRICITY,INCLINATION,RA_OF_ASC_NODE,ARG_OF_PERICENTER,MEAN_ANOMALY,BSTAR,MEAN_MOTION_DOT,MEAN_MOTION_DDOT,TLE_LINE0,TLE_LINE1,TLE_LINE2,SEMIMAJOR_AXIS,PERIOD,APOGEE,PERIGEE,DECAYED
55423.0,STARLINK-5068,PAYLOAD,2023-09-22 02:57:08,14.98330804,0.0002724,70.0017,192.6699,262.7652,97.3197,0.00013909,1.567e-05,0.0,0 STARLINK-5068,1 55423U 23014AJ  23265.12301869  .00001567  00000-0  13909-3 0  9991,2 55423  70.0017 192.6699 0002724 262.7652  97.3197 14.98330804 35872,6950.19,96.107,573.949,570.162,0.0
55423.0,STARLINK-5068,PAYLOAD,2023-09-22 04:33:16,14.98333481,0.0002612,70.002,192.5018,262.8584,97.2278,0.00017473,1.993e-05,0.0,0 STARLINK-5068,1 55423U 23014AJ  23265.18977619  .00001993  00000-0  17473-3 0  9992,2 55423  70.0020 192.5018 0002612 262.8584  97.2278 14.98333481 36820,6950.182,96.107,573.863,570.232,0.0
55423.0,STARLINK-5068,PAYLOAD,2023-09-22 22:10:45,14.98331258,0.000252,70.0026,190.6505,256.0707,104.0171,4.0798e-05,3.94e-06,0.0,0 STARLINK-5068,1 55423U 23014AJ  23265.92414047  .00000394  00000-0  40798-4 0  9996,2 55423  70.0026 190.6505 0002520 256.0707 104.0171 14.98331258 36937,6950.189,96.107,573.805,570.303,0.0
55423.0,STARLINK-5068,PAYLOAD,2023-09-23 02:59:09,14.98332375,0.0002631,70.002,190.1457,262.2072,97.8789,6.6576e-05,7.02e-06,0.0,0 STARLINK-5068,1 55423U 23014AJ  23266.12441903  .00000702  00000-0  66576-4 0  9995,2 55423  70.0020 190.1457 0002631 262.2072  97.8789 14.98332375 36024,6950.186,96.107,573.879,570.222,0.0
55423.0,STARLINK-5068,PAYLOAD,2023-09-23 04:35:17,14.98333473,0.000265,70.0021,189.9775,263.1727,96.913,8.0354e-05,8.66e-06,0.0,0 STARLINK-5068,1 55423U 23014AJ  23266.19117781  .00000866  00000-0  80354-4 0  9997,2 55423  70.0021 189.9775 0002650 263.1727  96.9130 14.98333473 36976,6950.182,96.107,573.889,570.205,0.0
55423.0,STARLINK-5068,PAYLOAD,2023-09-24 03:01:11,14.98331609,0.00029,70.0023,187.6225,262.2706,97.8124,-7.8581e-05,-1.03e-05,0.0,0 STARLINK-5068,1 55423U 23014AJ  23267.12582187 -.00001030  00000-0 -78581-4 0  9992,2 55423  70.0023 187.6225 0002900 262.2706  97.8124 14.98331609 36172,6950.188,96.107,574.068,570.037,0.0
55423.0,STARLINK-5068,PAYLOAD,2023-09-24 04:37:18,14.98332835,0.0002991,70.0022,187.4546,264.9937,95.0881,-7.8117e-05,-1.025e-05,0.0,0 STARLINK-5068,1 55423U 23014AJ  23267.19258099 -.00001025  00000-0 -78117-4 0  9990,2 55423  70.0022 187.4546 0002991 264.9937  95.0881 14.98332835 37128,6950.184,96.107,574.128,569.97,0.0
55423.0,STARLINK-5068,PAYLOAD,2023-09-24 20:38:39,14.98330445,0.0002996,70.0016,185.77,266.716,93.3656,-3.4852e-05,-5.09e-06,0.0,0 STARLINK-5068,1 55423U 23014AJ  23267.86018028 -.00000509  00000-0 -34852-4 0  9994,2 55423  70.0016 185.7700 0002996 266.7160  93.3656 14.98330445 37224,6950.192,96.107,574.139,569.974,0.0
55423.0,STARLINK-5068,PAYLOAD,2023-09-25 03:03:11,14.98335062,0.0003158,70.0019,185.0984,272.548,87.5317,8.1612e-05,8.81e-06,0.0,0 STARLINK-5068,1 55423U 23014AJ  23268.12721406  .00000881  00000-0  81612-4 0  9992,2 55423  70.0019 185.0984 0003158 272.5480  87.5317 14.98335062 36324,6950.177,96.107,574.237,569.847,0.0
55423.0,STARLINK-5068,PAYLOAD,2023-09-25 04:39:19,14.98337053,0.0002922,70.002,184.9305,266.6726,93.4098,9.0171e-05,9.83e-06,0.0,0 STARLINK-5068,1 55423U 23014AJ  23268.19397229  .00000983  00000-0  90171-4 0  9994,2 55423  70.0020 184.9305 0002922 266.6726  93.4098 14.98337053 37275,6950.171,96.107,574.067,570.005,0.0
55423.0,STARLINK-5068,PAYLOAD,2023-09-25 20:40:39,14.98332363,0.000269,70.0019,183.2473,259.1677,100.9179,0.00024259,2.803e-05,0.0,0 STARLINK-5068,1 55423U 23014AJ  23268.86156662  .00002803  00000-0  24259-3 0  9998,2 55423  70.0019 183.2473 0002690 259.1677 100.9179 14.98332363 37379,6950.186,96.107,573.92,570.181,0.0
55423.0,STARLINK-5068,PAYLOAD,2023-09-26 03:05:10,14.98350279,0.000277,70.002,182.5749,259.2827,100.802,8.9306e-05,9.73e-06,0.0,0 STARLINK-5068,1 55423U 23014AJ  23269.12859814  .00000973  00000-0  89306-4 0  9998,2 55423  70.0020 182.5749 0002770 259.2827 100.8020 14.98350279 36476,6950.13,96.106,573.92,570.07,0.0
55423.0,STARLINK-5068,PAYLOAD,2023-09-26 04:41:18,14.98351733,0.0002829,70.0019,182.4058,261.6091,98.4747,0.00011152,1.239e-05,0.0,0 STARLINK-5068,1 55423U 23014AJ  23269.19535682  .00001239  00000-0  11152-3 0  9998,2 55423  70.0019 182.4058 0002829 261.6091  98.4747 14.98351733 37421,6950.126,96.106,573.957,570.024,0.0
55423.0,STARLINK-5068,PAYLOAD,2023-09-26 17:30:25,14.98324928,0.0002488,70.0016,181.0595,272.6879,87.3995,-0.00012166,-1.544e-05,0.0,0 STARLINK-5068,1 55423U 23014AJ  23269.72946032 -.00001544  00000-0 -12166-3 0  9999,2 55423  70.0016 181.0595 0002488 272.6879  87.3995 14.98324928 36568,6950.209,96.107,573.803,570.344,0.0
55423.0,STARLINK-5068,PAYLOAD,2023-09-26 20:42:41,14.98319338,0.000305,70.0013,180.7214,274.193,85.888,-0.00018748,-2.329e-05,0.0,0 STARLINK-5068,1 55423U 23014AJ  23269.86298561 -.00002329  00000-0 -18748-3 0  9995,2 55423  70.0013 180.7214 0003050 274.1930  85.8880 14.98319338 37522,6950.226,96.108,574.211,569.971,0.0
55423.0,STARLINK-5068,PAYLOAD,2023-09-27 11:07:54,14.98323495,0.0002768,70.0015,179.2066,272.1013,87.9829,-0.00017687,-2.202e-05,0.0,0 STARLINK-5068,1 55423U 23014AJ  23270.46382503 -.00002202  00000-0 -17687-3 0  9994,2 55423  70.0015 179.2066 0002768 272.1013  87.9829 14.98323495 37612,6950.213,96.107,574.002,570.154,0.0
55423.0,STARLINK-5068,PAYLOAD,2023-09-27 19:08:34,14.9832569,0.0002788,70.0012,178.3648,266.1216,93.9625,-0.00022141,-2.733e-05,0.0,0 STARLINK-5068,1 55423U 23014AJ  23270.79762580 -.00002733  00000-0 -22141-3 0  9997,2 55423  70.0012 178.3648 0002788 266.1216  93.9625 14.98325690 36726,6950.206,96.107,574.009,570.134,0.0
55423.0,STARLINK-5068,PAYLOAD,2023-09-28 03:09:14,14.98329425,0.0002708,70.0012,177.5236,265.2521,94.8329,-0.00015365,-1.926e-05,0.0,0 STARLINK-5068,1 55423U 23014AJ  23271.13142252 -.00001926  00000-0 -15365-3 0  9997,2 55423  70.0012 177.5236 0002708 265.2521  94.8329 14.98329425 37712,6950.195,96.107,573.942,570.178,0.0
55423.0,STARLINK-5068,PAYLOAD,2023-09-28 17:34:27,14.98325554,0.0002769,70.001,176.0087,270.8484,89.2357,0.00018279,2.088e-05,0.0,0 STARLINK-5068,1 55423U 23014AJ  23271.73225699  .00002088  00000-0  18279-3 0  9995,2 55423  70.0010 176.0087 0002769 270.8484  89.2357 14.98325554 36868,6950.207,96.107,573.996,570.147,0.0
55423.0,STARLINK-5068,PAYLOAD,2023-09-28 20:46:42,14.98336549,0.0002833,70.0011,175.6727,269.5562,90.5273,4.5321e-05,4.48e-06,0.0,0 STARLINK-5068,1 55423U 23014AJ  23271.86577445  .00000448  00000-0  45321-4 0  9995,2 55423  70.0011 175.6727 0002833 269.5562  90.5273 14.98336549 37824,6950.173,96.107,574.007,570.069,0.0
55423.0,STARLINK-5068,PAYLOAD,2023-09-28 22:22:50,14.98340903,0.0002885,70.0011,175.5044,269.1519,90.9309,-3.0217e-05,-4.54e-06,0.0,0 STARLINK-5068,1 55423U 23014AJ  23271.93253362 -.00000454  00000-0 -30217-4 0  9999,2 55423  70.0011 175.5044 0002885 269.1519  90.9309 14.98340903 36899,6950.159,96.106,574.029,570.019,0.0
55423.0,STARLINK-5068,PAYLOAD,2023-09-29 03:11:14,14.98340432,0.0002801,70.0011,174.9995,269.6344,90.4494,0.00011174,1.241e-05,0.0,0 STARLINK-5068,1 55423U 23014AJ  23272.13280914  .00001241  00000-0  11174-3 0  9998,2 55423  70.0011 174.9995 0002801 269.6344  90.4494 14.98340432 37861,6950.161,96.106,573.972,570.079,0.0
55423.0,STARLINK-5068,PAYLOAD,2023-09-30 03:13:15,14.98331244,0.0002644,70.0017,172.4745,259.1032,100.983,0.00014359,1.621e-05,0.0,0 STARLINK-5068,1 55423U 23014AJ  23273.13421274  .00001621  00000-0  14359-3 0  9995,2 55423  70.0017 172.4745 0002644 259.1032 100.9830 14.98331244 37071,6950.189,96.107,573.892,570.216,0.0
55423.0,STARLINK-5068,PAYLOAD,2023-09-30 17:38:29,14.98328327,0.0002613,70.0018,170.9597,264.143,95.9431,-0.00015811,-1.979e-05,0.0,0 STARLINK-5068,1 55423U 23014AJ  23273.73506296 -.00001979  00000-0 -15811-3 0  9991,2 55423  70.0018 170.9597 0002613 264.1430  95.9431 14.98328327 37162,6950.198,96.107,573.879,570.247,0.0
55423.0,STARLINK-5068,PAYLOAD,2023-10-01 03:15:17,14.98356509,0.0002431,70.0006,169.9504,255.6103,104.4786,-0.00058407,-7.059e-05,0.0,0 STARLINK-5068,1 55423U 23014AJ  23274.13561461 -.00007059  00000-0 -58407-3 0  9994,2 55423  70.0006 169.9504 0002431 255.6103 104.4786 14.98356509 37224,6950.111,96.105,573.665,570.286,0.0
55423.0,STARLINK-5068,PAYLOAD,2023-10-01 19:16:37,14.98333356,0.0002875,70.0001,168.2656,266.801,93.282,-4.5803e-05,-6.39e-06,0.0,0 STARLINK-5068,1 55423U 23014AJ  23274.80321556 -.00000639  00000-0 -45803-4 0  9991,2 55423  70.0001 168.2656 0002875 266.8010  93.2820 14.98333356 37322,6950.183,96.107,574.046,570.049,0.0
55423.0,STARLINK-5068,PAYLOAD,2023-10-01 20:52:45,14.98330743,0.000305,70.0001,168.097,272.0487,88.0322,-3.1364e-05,-4.67e-06,0.0,0 STARLINK-5068,1 55423U 23014AJ  23274.86997680 -.00000467  00000-0 -31364-4 0  9990,2 55423  70.0001 168.0970 0003050 272.0487  88.0322 14.98330743 38273,6950.191,96.107,574.175,569.936,0.0
55423.0,STARLINK-5068,PAYLOAD,2023-10-02 19:18:38,14.98325751,0.0002792,70.0009,165.7417,267.1602,92.9238,8.8988e-05,9.69e-06,0.0,0 STARLINK-5068,1 55423U 23014AJ  23275.80461624  .00000969  00000-0  88988-4 0  9998,2 55423  70.0009 165.7417 0002792 267.1602  92.9238 14.98325751 37471,6950.206,96.107,574.012,570.131,0.0
55423.0,STARLINK-5068,PAYLOAD,2023-10-02 20:54:46,14.98325819,0.0002832,70.0007,165.5733,267.4037,92.6798,8.4051e-05,9.1e-06,0.0,0 STARLINK-5068,1 55423U 23014AJ  23275.87137638  .00000910  00000-0  84051-4 0  9993,2 55423  70.0007 165.5733 0002832 267.4037  92.6798 14.98325819 38427,6950.206,96.107,574.039,570.103,0.0
55423.0,STARLINK-5068,PAYLOAD,2023-10-03 09:43:50,14.98366638,0.0002536,70.0008,164.2266,271.9313,88.1555,-0.00065336,-7.887e-05,0.0,0 STARLINK-5068,1 55423U 23014AJ  23276.40544737 -.00007887  00000-0 -65336-3 0  9991,2 55423  70.0008 164.2266 0002536 271.9313  88.1555 14.98366638 37562,6950.08,96.105,573.707,570.182,0.0
